[{"OBJECT_NAME":"UHETSAT","OBJECT_ID":"2023-185E","EPOCH":"2026-03-09T22:39:26.455680","MEAN_MOTION":15.29797662,"ECCENTRICITY":0.00118435,"INCLINATION":97.3584,"RA_OF_ASC_NODE":137.3576,"ARG_OF_PERICENTER":307.7346,"MEAN_ANOMALY":52.2821,"EPHEMERIS_TYPE":0,"CLASSIFICATION_TYPE":"U","NORAD_CAT_ID":58466,"ELEMENT_SET_NO":999,"REV_AT_EPOCH":12611,"BSTAR":0.00030513019,"MEAN_MOTION_DOT":8.749e-5,"MEAN_MOTION_DDOT":0},{"OBJECT_NAME":"STARLINK-33681","OBJECT_ID":"2025-069F","EPOCH":"2026-03-09T11:43:45.083136","MEAN_MOTION":15.30193084,"ECCENTRICITY":0.00012402,"INCLINATION":53.1578,"RA_OF_ASC_NODE":143.4356,"ARG_OF_PERICENTER":73.8719,"MEAN_ANOMALY":286.2418,"EPHEMERIS_TYPE":0,"CLASSIFICATION_TYPE":"U","NORAD_CAT_ID":63438,"ELEMENT_SET_NO":999,"REV_AT_EPOCH":5337,"BSTAR":0.00077010313,"MEAN_MOTION_DOT":0.00022513,"MEAN_MOTION_DDOT":0}]
